IRIDIUM 112             
1 41925U 17003J   23296.93257718  .00000145  00000+0  44824-4 0  9991
2 41925  86.3944 132.5812 0002268  84.7922 275.3532 14.34215581354631
IRIDIUM 111             
1 41926U 17003K   23296.91989426  .00000109  00000+0  31828-4 0  9998
2 41926  86.3945 132.6359 0001900  84.5121 275.6292 14.34214995354613
IRIDIUM 113             
1 42803U 17039A   23296.89984879  .00000454  00000+0  15521-3 0  9990
2 42803  86.4027   6.3825 0002195  90.0369 270.1078 14.34219045332549
IRIDIUM 123             
1 42804U 17039B   23296.80178921  .00000472  00000+0  16159-3 0  9993
2 42804  86.4011  37.9077 0002152  86.7675 273.3767 14.34220033331297
IRIDIUM 120             
1 42805U 17039C   23296.89350840  .00000455  00000+0  15543-3 0  9992
2 42805  86.4015   6.2932 0002097  92.8250 267.3186 14.34219777332535
IRIDIUM 115             
1 42806U 17039D   23296.26148289  .00000637  00000+0  18310-3 0  9993
2 42806  86.4553   6.5477 0001964  91.7055 268.4371 14.43361523334653
IRIDIUM 118             
1 42807U 17039E   23296.83350307  .00000488  00000+0  16729-3 0  9999
2 42807  86.4010  37.8968 0002158  94.0845 266.0598 14.34221387331300
IRIDIUM 117             
1 42808U 17039F   23296.78276137 -.00000075  00000+0 -33685-4 0  9997
2 42808  86.4007  37.8842 0001892  97.0836 263.0575 14.34218154331316
